[{"OBJECT_NAME":"STARLINK-32378","OBJECT_ID":"2024-164Q","EPOCH":"2025-09-12T13:15:06.712128","MEAN_MOTION":15.30172885,"ECCENTRICITY":6.468e-5,"INCLINATION":53.1593,"RA_OF_ASC_NODE":198.5684,"ARG_OF_PERICENTER":123.7625,"MEAN_ANOMALY":236.3437,"EPHEMERIS_TYPE":0,"CLASSIFICATION_TYPE":"U","NORAD_CAT_ID":61064,"ELEMENT_SET_NO":999,"REV_AT_EPOCH":5620,"BSTAR":0.00013916561,"MEAN_MOTION_DOT":3.762e-5,"MEAN_MOTION_DDOT":0},{"OBJECT_NAME":"STARLINK-32321","OBJECT_ID":"2024-164R","EPOCH":"2025-09-12T13:28:46.901280","MEAN_MOTION":15.30209319,"ECCENTRICITY":0.00010544,"INCLINATION":53.1604,"RA_OF_ASC_NODE":198.6294,"ARG_OF_PERICENTER":94.6239,"MEAN_ANOMALY":265.4882,"EPHEMERIS_TYPE":0,"CLASSIFICATION_TYPE":"U","NORAD_CAT_ID":61065,"ELEMENT_SET_NO":999,"REV_AT_EPOCH":5620,"BSTAR":-9.2336942e-5,"MEAN_MOTION_DOT":-3.093e-5,"MEAN_MOTION_DDOT":0},{"OBJECT_NAME":"STARLINK-32381","OBJECT_ID":"2024-164S","EPOCH":"2025-09-12T13:43:58.909440","MEAN_MOTION":15.30196007,"ECCENTRICITY":0.00012366,"INCLINATION":53.1645,"RA_OF_ASC_NODE":198.6934,"ARG_OF_PERICENTER":85.6681,"MEAN_ANOMALY":274.4461,"EPHEMERIS_TYPE":0,"CLASSIFICATION_TYPE":"U","NORAD_CAT_ID":61066,"ELEMENT_SET_NO":999,"REV_AT_EPOCH":5620,"BSTAR":1.2922889e-5,"MEAN_MOTION_DOT":2.4e-7,"MEAN_MOTION_DDOT":0},{"OBJECT_NAME":"STARLINK-32385","OBJECT_ID":"2024-164U","EPOCH":"2025-09-12T13:24:13.415040","MEAN_MOTION":15.30196623,"ECCENTRICITY":2.181e-5,"INCLINATION":53.16,"RA_OF_ASC_NODE":198.61,"ARG_OF_PERICENTER":179.4567,"MEAN_ANOMALY":180.6434,"EPHEMERIS_TYPE":0,"CLASSIFICATION_TYPE":"U","NORAD_CAT_ID":61068,"ELEMENT_SET_NO":999,"REV_AT_EPOCH":5620,"BSTAR":-4.0717243e-5,"MEAN_MOTION_DOT":-1.564e-5,"MEAN_MOTION_DDOT":0},{"OBJECT_NAME":"STARLINK-32380","OBJECT_ID":"2024-164V","EPOCH":"2025-09-12T13:19:40.054944","MEAN_MOTION":15.30192811,"ECCENTRICITY":5.626e-5,"INCLINATION":53.162,"RA_OF_ASC_NODE":198.5897,"ARG_OF_PERICENTER":124.9963,"MEAN_ANOMALY":235.1091,"EPHEMERIS_TYPE":0,"CLASSIFICATION_TYPE":"U","NORAD_CAT_ID":61069,"ELEMENT_SET_NO":999,"REV_AT_EPOCH":5620,"BSTAR":1.6974426e-5,"MEAN_MOTION_DOT":1.44e-6,"MEAN_MOTION_DDOT":0},{"OBJECT_NAME":"STARLINK-32375","OBJECT_ID":"2024-164W","EPOCH":"2025-09-12T13:33:20.746080","MEAN_MOTION":15.30195542,"ECCENTRICITY":0.00011877,"INCLINATION":53.1567,"RA_OF_ASC_NODE":198.6455,"ARG_OF_PERICENTER":87.1357,"MEAN_ANOMALY":272.978,"EPHEMERIS_TYPE":0,"CLASSIFICATION_TYPE":"U","NORAD_CAT_ID":61070,"ELEMENT_SET_NO":999,"REV_AT_EPOCH":5620,"BSTAR":4.837289e-6,"MEAN_MOTION_DOT":-2.16e-6,"MEAN_MOTION_DDOT":0},{"OBJECT_NAME":"STARLINK-11209 [DTC]","OBJECT_ID":"2024-171A","EPOCH":"2025-09-11T12:11:52.284192","MEAN_MOTION":15.6969986,"ECCENTRICITY":0.00010704,"INCLINATION":53.159,"RA_OF_ASC_NODE":339.7611,"ARG_OF_PERICENTER":87.1137,"MEAN_ANOMALY":273.0003,"EPHEMERIS_TYPE":0,"CLASSIFICATION_TYPE":"U","NORAD_CAT_ID":61200,"ELEMENT_SET_NO":999,"REV_AT_EPOCH":5716,"BSTAR":5.643682e-6,"MEAN_MOTION_DOT":9.5e-7,"MEAN_MOTION_DDOT":0},{"OBJECT_NAME":"STARLINK-11257 [DTC]","OBJECT_ID":"2024-171B","EPOCH":"2025-09-12T12:31:44.342400","MEAN_MOTION":15.69710493,"ECCENTRICITY":8.919e-5,"INCLINATION":53.1586,"RA_OF_ASC_NODE":334.7005,"ARG_OF_PERICENTER":69.7634,"MEAN_ANOMALY":290.348,"EPHEMERIS_TYPE":0,"CLASSIFICATION_TYPE":"U","NORAD_CAT_ID":61201,"ELEMENT_SET_NO":999,"REV_AT_EPOCH":5641,"BSTAR":4.687596e-6,"MEAN_MOTION_DOT":-2.0e-7,"MEAN_MOTION_DDOT":0},{"OBJECT_NAME":"STARLINK-11309 [DTC]","OBJECT_ID":"2024-171C","EPOCH":"2025-09-12T12:24:40.617792","MEAN_MOTION":15.69707914,"ECCENTRICITY":0.00014053,"INCLINATION":53.1589,"RA_OF_ASC_NODE":334.6682,"ARG_OF_PERICENTER":93.6767,"MEAN_ANOMALY":266.4411,"EPHEMERIS_TYPE":0,"CLASSIFICATION_TYPE":"U","NORAD_CAT_ID":61202,"ELEMENT_SET_NO":999,"REV_AT_EPOCH":5641,"BSTAR":1.380306e-6,"MEAN_MOTION_DOT":-4.22e-6,"MEAN_MOTION_DDOT":0},{"OBJECT_NAME":"STARLINK-11292 [DTC]","OBJECT_ID":"2024-171D","EPOCH":"2025-09-12T12:17:36.988224","MEAN_MOTION":15.69710151,"ECCENTRICITY":4.746e-5,"INCLINATION":53.1591,"RA_OF_ASC_NODE":334.6354,"ARG_OF_PERICENTER":61.2135,"MEAN_ANOMALY":298.893,"EPHEMERIS_TYPE":0,"CLASSIFICATION_TYPE":"U","NORAD_CAT_ID":61203,"ELEMENT_SET_NO":999,"REV_AT_EPOCH":5641,"BSTAR":6.046986e-6,"MEAN_MOTION_DOT":1.45e-6,"MEAN_MOTION_DDOT":0},{"OBJECT_NAME":"STARLINK-11302 [DTC]","OBJECT_ID":"2024-171E","EPOCH":"2025-09-12T12:10:32.685600","MEAN_MOTION":15.69714406,"ECCENTRICITY":0.00018007,"INCLINATION":53.1585,"RA_OF_ASC_NODE":334.6024,"ARG_OF_PERICENTER":93.0785,"MEAN_ANOMALY":267.0439,"EPHEMERIS_TYPE":0,"CLASSIFICATION_TYPE":"U","NORAD_CAT_ID":61204,"ELEMENT_SET_NO":999,"REV_AT_EPOCH":5641,"BSTAR":2.956031e-6,"MEAN_MOTION_DOT":-2.32e-6,"MEAN_MOTION_DDOT":0},{"OBJECT_NAME":"STARLINK-11277 [DTC]","OBJECT_ID":"2024-171F","EPOCH":"2025-09-12T05:49:40.887840","MEAN_MOTION":15.69735809,"ECCENTRICITY":0.00017067,"INCLINATION":53.1543,"RA_OF_ASC_NODE":335.7916,"ARG_OF_PERICENTER":87.4349,"MEAN_ANOMALY":272.6864,"EPHEMERIS_TYPE":0,"CLASSIFICATION_TYPE":"U","NORAD_CAT_ID":61205,"ELEMENT_SET_NO":999,"REV_AT_EPOCH":5637,"BSTAR":-3.1222595e-5,"MEAN_MOTION_DOT":-4.375e-5,"MEAN_MOTION_DDOT":0},{"OBJECT_NAME":"STARLINK-11279 [DTC]","OBJECT_ID":"2024-171G","EPOCH":"2025-09-12T11:49:21.394272","MEAN_MOTION":15.69713771,"ECCENTRICITY":0.00017742,"INCLINATION":53.1586,"RA_OF_ASC_NODE":334.5046,"ARG_OF_PERICENTER":93.4835,"MEAN_ANOMALY":266.6386,"EPHEMERIS_TYPE":0,"CLASSIFICATION_TYPE":"U","NORAD_CAT_ID":61206,"ELEMENT_SET_NO":999,"REV_AT_EPOCH":5641,"BSTAR":-8.944281e-6,"MEAN_MOTION_DOT":-1.673e-5,"MEAN_MOTION_DDOT":0},{"OBJECT_NAME":"STARLINK-11091 [DTC]","OBJECT_ID":"2024-171H","EPOCH":"2025-09-11T05:29:48.795072","MEAN_MOTION":15.69701754,"ECCENTRICITY":0.00013873,"INCLINATION":53.1591,"RA_OF_ASC_NODE":340.8464,"ARG_OF_PERICENTER":83.1544,"MEAN_ANOMALY":276.9632,"EPHEMERIS_TYPE":0,"CLASSIFICATION_TYPE":"U","NORAD_CAT_ID":61207,"ELEMENT_SET_NO":999,"REV_AT_EPOCH":5621,"BSTAR":3.421765e-6,"MEAN_MOTION_DOT":-1.75e-6,"MEAN_MOTION_DDOT":0},{"OBJECT_NAME":"STARLINK-11291 [DTC]","OBJECT_ID":"2024-171J","EPOCH":"2025-09-12T11:42:16.141248","MEAN_MOTION":15.69722618,"ECCENTRICITY":8.531e-5,"INCLINATION":53.1592,"RA_OF_ASC_NODE":334.4691,"ARG_OF_PERICENTER":70.7163,"MEAN_ANOMALY":289.3948,"EPHEMERIS_TYPE":0,"CLASSIFICATION_TYPE":"U","NORAD_CAT_ID":61208,"ELEMENT_SET_NO":999,"REV_AT_EPOCH":5641,"BSTAR":1.527852e-5,"MEAN_MOTION_DOT":1.264e-5,"MEAN_MOTION_DDOT":0},{"OBJECT_NAME":"STARLINK-11304 [DTC]","OBJECT_ID":"2024-171K","EPOCH":"2025-09-11T12:39:58.770720","MEAN_MOTION":15.69697313,"ECCENTRICITY":0.00013756,"INCLINATION":53.1595,"RA_OF_ASC_NODE":339.146,"ARG_OF_PERICENTER":88.1482,"MEAN_ANOMALY":271.9693,"EPHEMERIS_TYPE":0,"CLASSIFICATION_TYPE":"U","NORAD_CAT_ID":61209,"ELEMENT_SET_NO":999,"REV_AT_EPOCH":5717,"BSTAR":1.1931701e-5,"MEAN_MOTION_DOT":8.56e-6,"MEAN_MOTION_DDOT":0},{"OBJECT_NAME":"STARLINK-11307 [DTC]","OBJECT_ID":"2024-171L","EPOCH":"2025-09-12T14:31:40.745280","MEAN_MOTION":15.69722109,"ECCENTRICITY":0.00011206,"INCLINATION":53.1605,"RA_OF_ASC_NODE":334.5125,"ARG_OF_PERICENTER":94.5581,"MEAN_ANOMALY":265.5565,"EPHEMERIS_TYPE":0,"CLASSIFICATION_TYPE":"U","NORAD_CAT_ID":61210,"ELEMENT_SET_NO":999,"REV_AT_EPOCH":5642,"BSTAR":-1.7439421e-5,"MEAN_MOTION_DOT":-2.702e-5,"MEAN_MOTION_DDOT":0},{"OBJECT_NAME":"STARLINK-11298 [DTC]","OBJECT_ID":"2024-171M","EPOCH":"2025-09-11T12:25:59.971008","MEAN_MOTION":15.69692023,"ECCENTRICITY":0.00011058,"INCLINATION":53.1582,"RA_OF_ASC_NODE":339.8158,"ARG_OF_PERICENTER":89.7885,"MEAN_ANOMALY":270.3259,"EPHEMERIS_TYPE":0,"CLASSIFICATION_TYPE":"U","NORAD_CAT_ID":61211,"ELEMENT_SET_NO":999,"REV_AT_EPOCH":5625,"BSTAR":1.3358656e-5,"MEAN_MOTION_DOT":1.029e-5,"MEAN_MOTION_DDOT":0},{"OBJECT_NAME":"STARLINK-11310 [DTC]","OBJECT_ID":"2024-171N","EPOCH":"2025-09-12T14:17:33.205344","MEAN_MOTION":15.69710124,"ECCENTRICITY":0.00012956,"INCLINATION":53.159,"RA_OF_ASC_NODE":334.446,"ARG_OF_PERICENTER":87.937,"MEAN_ANOMALY":272.1796,"EPHEMERIS_TYPE":0,"CLASSIFICATION_TYPE":"U","NORAD_CAT_ID":61212,"ELEMENT_SET_NO":999,"REV_AT_EPOCH":5642,"BSTAR":-2.687204e-6,"MEAN_MOTION_DOT":-9.14e-6,"MEAN_MOTION_DDOT":0},{"OBJECT_NAME":"STARLINK-32386","OBJECT_ID":"2024-171P","EPOCH":"2025-09-12T12:18:20.483712","MEAN_MOTION":15.30190107,"ECCENTRICITY":9.698e-5,"INCLINATION":53.1616,"RA_OF_ASC_NODE":69.713,"ARG_OF_PERICENTER":92.1336,"MEAN_ANOMALY":267.9776,"EPHEMERIS_TYPE":0,"CLASSIFICATION_TYPE":"U","NORAD_CAT_ID":61213,"ELEMENT_SET_NO":999,"REV_AT_EPOCH":5509,"BSTAR":-1.0248039e-5,"MEAN_MOTION_DOT":-6.62e-6,"MEAN_MOTION_DDOT":0},{"OBJECT_NAME":"STARLINK-32392","OBJECT_ID":"2024-171Q","EPOCH":"2025-09-11T19:29:34.948320","MEAN_MOTION":15.30191681,"ECCENTRICITY":0.00011023,"INCLINATION":53.1606,"RA_OF_ASC_NODE":73.1617,"ARG_OF_PERICENTER":92.2237,"MEAN_ANOMALY":267.889,"EPHEMERIS_TYPE":0,"CLASSIFICATION_TYPE":"U","NORAD_CAT_ID":61214,"ELEMENT_SET_NO":999,"REV_AT_EPOCH":5498,"BSTAR":1.9816932e-5,"MEAN_MOTION_DOT":2.28e-6,"MEAN_MOTION_DDOT":0},{"OBJECT_NAME":"STARLINK-32436","OBJECT_ID":"2024-171R","EPOCH":"2025-09-12T12:19:51.072384","MEAN_MOTION":15.30199943,"ECCENTRICITY":7.149e-5,"INCLINATION":53.1613,"RA_OF_ASC_NODE":69.7196,"ARG_OF_PERICENTER":97.3628,"MEAN_ANOMALY":262.7454,"EPHEMERIS_TYPE":0,"CLASSIFICATION_TYPE":"U","NORAD_CAT_ID":61215,"ELEMENT_SET_NO":999,"REV_AT_EPOCH":5509,"BSTAR":2.5901368e-5,"MEAN_MOTION_DOT":4.08e-6,"MEAN_MOTION_DDOT":0},{"OBJECT_NAME":"STARLINK-32425","OBJECT_ID":"2024-171S","EPOCH":"2025-09-12T11:43:32.933568","MEAN_MOTION":15.30193546,"ECCENTRICITY":0.00010768,"INCLINATION":53.1605,"RA_OF_ASC_NODE":70.2736,"ARG_OF_PERICENTER":97.6598,"MEAN_ANOMALY":262.4525,"EPHEMERIS_TYPE":0,"CLASSIFICATION_TYPE":"U","NORAD_CAT_ID":61216,"ELEMENT_SET_NO":999,"REV_AT_EPOCH":5508,"BSTAR":-5.050731e-6,"MEAN_MOTION_DOT":-5.09e-6,"MEAN_MOTION_DDOT":0}]
